{
    "type": "Feature",
    "geometry": {
        "type": "Polygon",
        "coordinates": [
            [
                [85.15888567464984, 20.770682295198036],
                [85.15857077620878, 20.770511377176472],
                [85.15777123861034, 20.76995680603808],
                [85.15663033880894, 20.76955663944996],
                [85.15532036658931, 20.769086357927414],
                [85.1542023658503, 20.768897062426326],
                [85.15283225729085, 20.768767053042236],
                [85.15129816848307, 20.768697892708108],
                [85.15053966003872, 20.768694074349646],
                [85.14968551516111, 20.76868433792234],
                [85.14967755244521, 20.768677794688053],
                [85.14849642441251, 20.76899442559543],
                [85.1469188892763, 20.769821739254457],
                [85.1452300487447, 20.771310900426226],
                [85.14366714583949, 20.772264223196682],
                [85.14167650718521, 20.77303894687174],
                [85.14051810477785, 20.773699945127927],
                [85.13872457883714, 20.77388114814213],
                [85.13747473567176, 20.77382509780532],
                [85.13560618872239, 20.773712029108264],
                [85.13428595555192, 20.773354656007555],
                [85.13323036759901, 20.772755815416666],
                [85.13267417805278, 20.77229170591369],
                [85.13190094986516, 20.771782114031286],
                [85.13091407797941, 20.771440897428256],
                [85.1302021746443, 20.771124766657252],
                [85.13006420342717, 20.771099582813278],
                [85.13026429759311, 20.771465461845764],
                [85.13078211558776, 20.772202392429318],
                [85.13126689252833, 20.77297036494928],
                [85.13171908336263, 20.773907414301263],
                [85.13212988531347, 20.774912606057185],
                [85.13243176811258, 20.775884717515627],
                [85.13264371872432, 20.776556200776582],
                [85.13290029520297, 20.777495353150133],
                [85.13378578569868, 20.78001663652526],
                [85.1341490429941, 20.780551784776936],
                [85.13463940584786, 20.781588761682368],
                [85.13480799468417, 20.782024744711258],
                [85.1350473896941, 20.78239387587512],
                [85.13524981764628, 20.782692947994864],
                [85.13537147628222, 20.782928064956728],
                [85.13545003273457, 20.783061121494534],
                [85.13556910821626, 20.783229602156457],
                [85.13569173416494, 20.783363448153533],
                [85.1358595808642, 20.783464681640496],
                [85.13587177596571, 20.783468150328346],
                [85.13607975553757, 20.783527306557115],
                [85.1363122807768, 20.783592958838],
                [85.13669388709232, 20.783591374030756],
                [85.1371901889356, 20.783519128848184],
                [85.1377635181729, 20.78341432818921],
                [85.13857042568154, 20.783276201086768],
                [85.13929416919477, 20.78313862284625],
                [85.1400253839379, 20.78306750951866],
                [85.14117881194564, 20.78303251692371],
                [85.14168179954788, 20.78313259164118],
                [85.14247055391063, 20.78340922142678],
                [85.14309387857425, 20.783709935739253],
                [85.14360568333744, 20.78391093929676],
                [85.14399773211916, 20.784178178145325],
                [85.14431639276525, 20.784445636267524],
                [85.14451893402729, 20.784746994179276],
                [85.14464319944052, 20.785048740174435],
                [85.14476621579276, 20.785318316958747],
                [85.14485359729913, 20.785552304117704],
                [85.14509398575306, 20.78582014924632],
                [85.14536829157451, 20.785953378440727],
                [85.145679192289, 20.786020925458352],
                [85.14598741489817, 20.786019537847196],
                [85.14618574212854, 20.786086350396744],
                [85.1463425887698, 20.786219012490946],
                [85.14642613424425, 20.786354193508696],
                [85.14647078845101, 20.786621860561755],
                [85.1464798959947, 20.786856236224885],
                [85.14648411677804, 20.78709077987287],
                [85.14661068618787, 20.787325720641682],
                [85.14680930804512, 20.787525972894848],
                [85.14700534081727, 20.787659588656126],
                [85.14724046852498, 20.787791860471003],
                [85.1475931483575, 20.7879269939777],
                [85.14857565645688, 20.78827746467877],
                [85.1486153764206, 20.78829220523101],
                [85.14919657899998, 20.788389567003883],
                [85.14974098347768, 20.788421466594585],
                [85.15032552738367, 20.788353046166403],
                [85.15162050896319, 20.788181956354176],
                [85.15157119612935, 20.787794804896997],
                [85.15171574854467, 20.786982225655837],
                [85.15199417852844, 20.786089112299507],
                [85.1530822470445, 20.784625135946317],
                [85.15418289986314, 20.783485141806764],
                [85.15519685943603, 20.782506884238646],
                [85.1565889151665, 20.781437371538534],
                [85.15846748913143, 20.780422414315687],
                [85.15998205394037, 20.779484401008805],
                [85.16112651810695, 20.778717888129265],
                [85.16167667785243, 20.777642830028558],
                [85.16241611527079, 20.776151692581585],
                [85.16291530059571, 20.774648128841044],
                [85.16287159247692, 20.77465653839498],
                [85.16243671055082, 20.77467153174807],
                [85.16208700608297, 20.774612261030967],
                [85.16164075206756, 20.774335435604108],
                [85.16137327172935, 20.77412607434783],
                [85.16110503783932, 20.77377178492795],
                [85.16083191911349, 20.773417663539355],
                [85.16064675447899, 20.77306051060417],
                [85.16046159084264, 20.772703357548377],
                [85.1602755852042, 20.772198979073583],
                [85.15999683255016, 20.771700097549108],
                [85.15945549720348, 20.770991683225144],
                [85.15888567464984, 20.770682295198036]
            ]
        ]
    },
    "properties": { "SUB_DIST": "Anugul", "DISTRICT": "Anugul", "STATE": "Odisha", "NAME": "Angarbandha", "CEN_2001": "2115001202454300", "TYPE": "Village" }
}
